GLOBALSTAR M063         
1 26081U 00008A   25357.17386007 -.00000080  00000+0  34708-4 0  9993
2 26081  51.9981 333.8451 0004698 320.0207 122.9130 11.86178287180006
GLOBALSTAR M062         
1 26082U 00008B   25356.94306485 -.00000118  00000+0 -13997-3 0  9999
2 26082  51.9850 260.7028 0007088 147.6108 293.1055 12.43478352520105
GLOBALSTAR M060         
1 26083U 00008C   25356.86570098  .00000035  00000+0  12524-2 0  9994
2 26083  52.0011 247.6339 0003469 130.7227 308.1985 12.17671813175350
GLOBALSTAR M064         
1 26084U 00008D   25356.52602963 -.00000059  00000+0  34855-3 0  9994
2 26084  52.0043  72.1587 0001803  82.3483 277.7554 11.88539412189496
GLOBALSTAR M065         
1 31571U 07020A   25351.59775860 -.00000114  00000+0 -59491-4 0  9998
2 31571  51.9915  28.0181 0009699 356.5964 173.4742 12.62015524856566
GLOBALSTAR M069         
1 31573U 07020C   25356.83300250 -.00000077  00000+0  14308-3 0  9993
2 31573  52.0047  31.2758 0002128 143.5202  28.2946 12.23465097857218
GLOBALSTAR M072         
1 31574U 07020D   25356.89410836 -.00000069  00000+0  20842-3 0  9993
2 31574  51.9901 209.5869 0001368  25.4676 347.3661 11.91654714853964
GLOBALSTAR M071         
1 31576U 07020F   25356.94217388 -.00000001  00000+0  88564-3 0  9999
2 31576  52.0074  61.9059 0001430 131.6913  39.4606 12.18263007517948
